#dV2023  2 14 10  0  0.00000000    1682       CTS   FIT  GFZ
## 2249 208800.00000000    30.00000000 59989 0.4166666666667
+    1   L65  0  0  0  0  0  0  0  0  0  0  0  0  0  0  0  0
+          0  0  0  0  0  0  0  0  0  0  0  0  0  0  0  0  0
+          0  0  0  0  0  0  0  0  0  0  0  0  0  0  0  0  0
+          0  0  0  0  0  0  0  0  0  0  0  0  0  0  0  0  0
+          0  0  0  0  0  0  0  0  0  0  0  0  0  0  0  0  0
++         0  0  0  0  0  0  0  0  0  0  0  0  0  0  0  0  0
++         0  0  0  0  0  0  0  0  0  0  0  0  0  0  0  0  0
++         0  0  0  0  0  0  0  0  0  0  0  0  0  0  0  0  0
++         0  0  0  0  0  0  0  0  0  0  0  0  0  0  0  0  0
++         0  0  0  0  0  0  0  0  0  0  0  0  0  0  0  0  0
%c L  cc GPS ccc cccc cccc cccc cccc ccccc ccccc ccccc ccccc
%c cc cc ccc ccc cccc cccc cccc cccc ccccc ccccc ccccc ccccc
%f  0.0000000  0.000000000  0.00000000000  0.000000000000000
%f  0.0000000  0.000000000  0.00000000000  0.000000000000000
%i    0    0    0    0      0      0      0      0         0
%i    0    0    0    0      0      0      0      0         0
/* CCCCCCCCCCCCCCCCCCCCCCCCCCCCCCCCCCCCCCCCCCCCCCCCCCCCCCCCCCCCCCCCCCCCCCCCCCCCC
/* C                             GFZ RSO-ORBIT                                 C
/* C DOI: https://doi.org/10.5880/GFZ_ORBIT/RSO/L65_G_v02                      C
/* C                                                                           C
/* C DORIS        RMS: not applicable                                          C
/* C GNSS-E Code  RMS: not applicable                                          C
/* C GNSS-E Phase RMS: not applicable                                          C
/* C GNSS-G Code  RMS:  46.820 [cm]   Obs.acc.:     13930 Obs.eli.:      1058  C
/* C GNSS-G Phase RMS:   4.061 [mm]   Obs.acc.:     13930 Obs.eli.:      1058  C
/* C SLR          RMS:   1.710 [cm]   Obs.acc.:        79 Obs.eli.:         0  C
/* C                                                                           C
/* CCCCCCCCCCCCCCCCCCCCCCCCCCCCCCCCCCCCCCCCCCCCCCCCCCCCCCCCCCCCCCCCCCCCCCCCCCCCC
*  2023  2 14 23 10 30.00000000
PL65  -3365.955448  -4648.237507   3774.593397  13676.780800
VL65  22565.044402  35561.328786  63507.724126 999999.999999
*  2023  2 14 23 11  0.00000000
PL65  -3296.182588  -4539.164895   3962.988197  13677.250548
VL65  23947.099157  37146.085721  62077.181667 999999.999999
*  2023  2 14 23 11 30.00000000
PL65  -3222.292300  -4425.407782   4146.987526  13677.720320
VL65  25309.707506  38684.055210  60577.681069 999999.999999
*  2023  2 14 23 12  0.00000000
PL65  -3144.345508  -4307.108971   4326.386982  13678.190069
VL65  26651.151031  40173.619545  59010.881804 999999.999999
*  2023  2 14 23 12 30.00000000
PL65  -3062.408262  -4184.416028   4500.987250  13678.659843
VL65  27969.727136  41613.222244  57378.517686 999999.999999
*  2023  2 14 23 13  0.00000000
PL65  -2976.551698  -4057.481095   4670.594328  13679.129606
VL65  29263.751227  43001.369232  55682.396371 999999.999999
*  2023  2 14 23 13 30.00000000
PL65  -2886.851971  -3926.460700   4835.019749  13679.599370
VL65  30531.560096  44336.631481  53924.398234 999999.999999
*  2023  2 14 23 14  0.00000000
PL65  -2793.390192  -3791.515555   4994.080788  13680.069138
VL65  31771.515187  45617.647597  52106.472805 999999.999999
*  2023  2 14 23 14 30.00000000
PL65  -2696.252347  -3652.810356   5147.600671  13680.538914
VL65  32982.004440  46843.124569  50230.634581 999999.999999
*  2023  2 14 23 15  0.00000000
PL65  -2595.529217  -3510.513574   5295.408758  13681.008688
VL65  34161.442767  48011.837640  48298.960556 999999.999999
*  2023  2 14 23 15 30.00000000
PL65  -2491.316299  -3364.797252   5437.340735  13681.478467
VL65  35308.273092  49122.631127  46313.589799 999999.999999
*  2023  2 14 23 16  0.00000000
PL65  -2383.713713  -3215.836793   5573.238798  13681.948245
VL65  36420.969757  50174.420617  44276.721855 999999.999999
*  2023  2 14 23 16 30.00000000
PL65  -2272.826107  -3063.810747   5702.951823  13682.418042
VL65  37498.041407  51166.193965  42190.612689 999999.999999
*  2023  2 14 23 17  0.00000000
PL65  -2158.762547  -2908.900588   5826.335541  13682.887820
VL65  38538.032188  52097.011067  40057.572350 999999.999999
*  2023  2 14 23 17 30.00000000
PL65  -2041.636414  -2751.290506   5943.252687  13683.357641
VL65  39539.524136  52966.005319  37879.963340 999999.999999
*  2023  2 14 23 18  0.00000000
PL65  -1921.565280  -2591.167174   6053.573162  13683.827435
VL65  40501.139232  53772.384830  35660.196565 999999.999999
*  2023  2 14 23 18 30.00000000
PL65  -1798.670794  -2428.719531   6157.174164  13684.297235
VL65  41421.540139  54515.432034  33400.729008 999999.999999
*  2023  2 14 23 19  0.00000000
PL65  -1673.078549  -2264.138558   6253.940335  13684.767036
VL65  42299.432877  55194.505342  31104.062254 999999.999999
*  2023  2 14 23 19 30.00000000
PL65  -1544.917955  -2097.617040   6343.763879  13685.236843
VL65  43133.568742  55809.040840  28772.737280 999999.999999
*  2023  2 14 23 20  0.00000000
PL65  -1414.322099  -1929.349340   6426.544676  13685.706661
VL65  43922.743871  56358.551591  26409.331131 999999.999999
*  2023  2 14 23 20 30.00000000
PL65  -1281.427612  -1759.531168   6502.190394  13686.176482
VL65  44665.800940  56842.627633  24016.455162 999999.999999
*  2023  2 14 23 21  0.00000000
PL65  -1146.374522  -1588.359345   6570.616579  13686.646295
VL65  45361.631190  57260.935565  21596.751521 999999.999999
*  2023  2 14 23 21 30.00000000
PL65  -1009.306112  -1416.031582   6631.746746  13687.116102
VL65  46009.175232  57613.217884  19152.890698 999999.999999
*  2023  2 14 23 22  0.00000000
PL65   -870.368767  -1242.746248   6685.512461  13687.585924
VL65  46607.424361  57899.292825  16687.569064 999999.999999
*  2023  2 14 23 22 30.00000000
PL65   -729.711820  -1068.702142   6731.853418  13688.055752
VL65  47155.421739  58119.054078  14203.506609 999999.999999
*  2023  2 14 23 23  0.00000000
PL65   -587.487394   -894.098270   6770.717501  13688.525574
VL65  47652.263950  58272.471186  11703.444707 999999.999999
*  2023  2 14 23 23 30.00000000
PL65   -443.850241   -719.133616   6802.060846  13688.995405
VL65  48097.102672  58359.589302   9190.143224 999999.999999
*  2023  2 14 23 24  0.00000000
PL65   -298.957575   -544.006915   6825.847896  13689.465243
VL65  48489.146064  58380.528531   6666.378291 999999.999999
*  2023  2 14 23 24 30.00000000
PL65   -152.968896   -368.916431   6842.051443  13689.935057
VL65  48827.660520  58335.484289   4134.940437 999999.999999
*  2023  2 14 23 25  0.00000000
PL65     -6.045816   -194.059724   6850.652667  13690.404896
VL65  49111.972794  58224.728491   1598.630804 999999.999999
*  2023  2 14 23 25 30.00000000
PL65    141.648125    -19.633426   6851.641162  13690.874720
VL65  49341.470820  58048.608945   -939.744408 999999.999999
*  2023  2 14 23 26  0.00000000
PL65    289.947641    154.166985   6845.014943  13691.344564
VL65  49515.603303  57807.546635  -3477.377346 999999.999999
*  2023  2 14 23 26 30.00000000
PL65    438.685887    327.147401   6830.780450  13691.814389
VL65  49633.880324  57502.034238  -6011.458849 999999.999999
*  2023  2 14 23 27  0.00000000
PL65    587.694639    499.115303   6808.952550  13692.284214
VL65  49695.875555  57132.637207  -8539.180453 999999.999999
*  2023  2 14 23 27 30.00000000
PL65    736.804494    669.879975   6779.554530  13692.754038
VL65  49701.227258  56699.993461 -11057.738900 999999.999999
*  2023  2 14 23 28  0.00000000
PL65    885.845060    839.252724   6742.618075  13693.223873
VL65  49649.638800  56204.812571 -13564.338734 999999.999999
*  2023  2 14 23 28 30.00000000
PL65   1034.645155   1007.047093   6698.183240  13693.693715
VL65  49540.880128  55647.875846 -16056.196606 999999.999999
*  2023  2 14 23 29  0.00000000
PL65   1183.033005   1173.079071   6646.298405  13694.163535
VL65  49374.787440  55030.033368 -18530.546326 999999.999999
*  2023  2 14 23 29 30.00000000
PL65   1330.836445   1337.167301   6587.020219  13694.633370
VL65  49151.262962  54352.201189 -20984.640027 999999.999999
*  2023  2 14 23 30  0.00000000
PL65   1477.883118   1499.133268   6520.413549  13695.103189
VL65  48870.276141  53615.360998 -23415.749833 999999.999999
*  2023  2 14 23 30 30.00000000
PL65   1624.000675   1658.801503   6446.551409  13695.573019
VL65  48531.863957  52820.559125 -25821.171171 999999.999999
*  2023  2 14 23 31  0.00000000
PL65   1769.016979   1815.999769   6365.514890  13696.042845
VL65  48136.130719  51968.904910 -28198.225007 999999.999999
*  2023  2 14 23 31 30.00000000
PL65   1912.760308   1970.559250   6277.393080  13696.512659
VL65  47683.248867  51061.569994 -30544.259473 999999.999999
*  2023  2 14 23 32  0.00000000
PL65   2055.059563   2122.314740   6182.282976  13696.982478
VL65  47173.460430  50099.787988 -32856.653218 999999.999999
*  2023  2 14 23 32 30.00000000
PL65   2195.744474   2271.104823   6080.289389  13697.452299
VL65  46607.077338  49084.852842 -35132.819678 999999.999999
*  2023  2 14 23 33  0.00000000
PL65   2334.645811   2416.772054   5971.524835  13697.922116
VL65  45984.481091  48018.116647 -37370.210069 999999.999999
*  2023  2 14 23 33 30.00000000
PL65   2471.595596   2559.163128   5856.109415  13698.391919
VL65  45306.122631  46900.988039 -39566.315950 999999.999999
*  2023  2 14 23 34  0.00000000
PL65   2606.427303   2698.129052   5734.170691  13698.861731
VL65  44572.522346  45734.930991 -41718.672043 999999.999999
*  2023  2 14 23 34 30.00000000
PL65   2738.976076   2833.525302   5605.843552  13699.331544
VL65  43784.270161  44521.463423 -43824.859610 999999.999999
*  2023  2 14 23 35  0.00000000
PL65   2869.078929   2965.211990   5471.270072  13699.801345
VL65  42942.025316  43262.155052 -45882.509677 999999.999999
*  2023  2 14 23 35 30.00000000
PL65   2996.574961   3093.054010   5330.599350  13700.271122
VL65  42046.516186  41958.625864 -47889.306181 999999.999999
EOF
